[Satellite]
VERSION=1.1
NAME=CZ-6A DEB
NICKNAME=CZ-6A DEB
TLE1=1 54608U 22151NJ  22342.29036482  .00000708  00000+0  46331-3 0  9995
TLE2=2 54608  98.7938 346.4603 0067046   4.9826 355.1995 14.04267282  3014
STATUS=0
